{
  "type": "FeatureCollection",
  "features": [
    {
      "type": "Feature",
      "properties": {
        "norad_id": 33886,
        "name": "IRIDIUM 33 DEB",
        "group": "iridium-33-debris",
        "lat": 23.87605601239508,
        "lon": -110.01332747389762,
        "alt_km": 776.1729403916434,
        "timestamp": "2025-12-02T08:59:33.099129+00:00",
        "meta_object_name": "IRIDIUM 33 DEB",
        "meta_object_id": "1997-051BF",
        "meta_epoch": "2025-12-02T00:42:45.496800",
        "meta_mean_motion": 14.3602978,
        "meta_eccentricity": 0.0012036,
        "meta_inclination": 86.3833,
        "meta_ra_of_asc_node": 71.7361,
        "meta_arg_of_pericenter": 282.7225,
        "meta_mean_anomaly": 250.9616,
        "meta_ephemeris_type": 0,
        "meta_classification_type": "U",
        "meta_norad_cat_id": 33886,
        "meta_element_set_no": 999,
        "meta_rev_at_epoch": 87898,
        "meta_bstar": 0.00024926,
        "meta_mean_motion_dot": 7.44e-06,
        "meta_mean_motion_ddot": 0,
        "tle_line1": "1 33886U 97051BF  25336.02969325  .00000744  00000+0  24926-3 0  9995",
        "tle_line2": "2 33886  86.3833  71.7361 0012036 282.7225 250.9616 14.36029780878985"
      },
      "geometry": {
        "type": "Point",
        "coordinates": [
          -110.01332747389762,
          23.87605601239508
        ]
      }
    },
    {
      "type": "Feature",
      "properties": {
        "norad_id": 33887,
        "name": "IRIDIUM 33 DEB",
        "group": "iridium-33-debris",
        "lat": 48.47157762813513,
        "lon": 12.0429023862396,
        "alt_km": 765.3955339049962,
        "timestamp": "2025-12-02T08:59:33.099140+00:00",
        "meta_object_name": "IRIDIUM 33 DEB",
        "meta_object_id": "1997-051BG",
        "meta_epoch": "2025-12-02T02:12:48.398112",
        "meta_mean_motion": 14.37205512,
        "meta_eccentricity": 0.0004039,
        "meta_inclination": 86.3053,
        "meta_ra_of_asc_node": 7.9804,
        "meta_arg_of_pericenter": 277.872,
        "meta_mean_anomaly": 110.2578,
        "meta_ephemeris_type": 0,
        "meta_classification_type": "U",
        "meta_norad_cat_id": 33887,
        "meta_element_set_no": 999,
        "meta_rev_at_epoch": 88012,
        "meta_bstar": 0.00017226,
        "meta_mean_motion_dot": 5.32e-06,
        "meta_mean_motion_ddot": 0,
        "tle_line1": "1 33887U 97051BG  25336.09222683  .00000532  00000+0  17226-3 0  9992",
        "tle_line2": "2 33887  86.3053   7.9804 0004039 277.8720 110.2578 14.37205512880126"
      },
      "geometry": {
        "type": "Point",
        "coordinates": [
          12.0429023862396,
          48.47157762813513
        ]
      }
    },
    {
      "type": "Feature",
      "properties": {
        "norad_id": 33953,
        "name": "IRIDIUM 33 DEB",
        "group": "iridium-33-debris",
        "lat": -47.42048462083368,
        "lon": 54.332088787161084,
        "alt_km": 728.8493822473638,
        "timestamp": "2025-12-02T08:59:33.099150+00:00",
        "meta_object_name": "IRIDIUM 33 DEB",
        "meta_object_id": "1997-051BN",
        "meta_epoch": "2025-12-01T11:49:34.999680",
        "meta_mean_motion": 14.55133088,
        "meta_eccentricity": 0.00184148,
        "meta_inclination": 86.3852,
        "meta_ra_of_asc_node": 58.6594,
        "meta_arg_of_pericenter": 137.1795,
        "meta_mean_anomaly": 238.3819,
        "meta_ephemeris_type": 0,
        "meta_classification_type": "U",
        "meta_norad_cat_id": 33953,
        "meta_element_set_no": 999,
        "meta_rev_at_epoch": 88140,
        "meta_bstar": 0.0015798545,
        "meta_mean_motion_dot": 6.858e-05,
        "meta_mean_motion_ddot": 0,
        "tle_line1": "1 33953U 97051BN  25335.49276620  .00006858  00000+0  15799-2 0  9998",
        "tle_line2": "2 33953  86.3852  58.6594 0018414 137.1795 238.3819 14.55133088881408"
      },
      "geometry": {
        "type": "Point",
        "coordinates": [
          54.332088787161084,
          -47.42048462083368
        ]
      }
    },
    {
      "type": "Feature",
      "properties": {
        "norad_id": 33960,
        "name": "IRIDIUM 33 DEB",
        "group": "iridium-33-debris",
        "lat": 82.08238117580406,
        "lon": 86.281712341668,
        "alt_km": 603.9117728608117,
        "timestamp": "2025-12-02T08:59:33.099162+00:00",
        "meta_object_name": "IRIDIUM 33 DEB",
        "meta_object_id": "1997-051BV",
        "meta_epoch": "2025-12-01T21:29:55.792032",
        "meta_mean_motion": 14.84270371,
        "meta_eccentricity": 0.0006917,
        "meta_inclination": 86.2527,
        "meta_ra_of_asc_node": 294.6233,
        "meta_arg_of_pericenter": 77.1368,
        "meta_mean_anomaly": 342.5021,
        "meta_ephemeris_type": 0,
        "meta_classification_type": "U",
        "meta_norad_cat_id": 33960,
        "meta_element_set_no": 999,
        "meta_rev_at_epoch": 88706,
        "meta_bstar": 0.0035106,
        "meta_mean_motion_dot": 0.00029537,
        "meta_mean_motion_ddot": 0,
        "tle_line1": "1 33960U 97051BV  25335.89578463  .00029537  00000+0  35106-2 0  9993",
        "tle_line2": "2 33960  86.2527 294.6233 0006917  77.1368 342.5021 14.84270371887060"
      },
      "geometry": {
        "type": "Point",
        "coordinates": [
          86.281712341668,
          82.08238117580406
        ]
      }
    },
    {
      "type": "Feature",
      "properties": {
        "norad_id": 33966,
        "name": "IRIDIUM 33 DEB",
        "group": "iridium-33-debris",
        "lat": -69.4421378184503,
        "lon": 40.79283301811989,
        "alt_km": 732.6382054869064,
        "timestamp": "2025-12-02T08:59:33.099172+00:00",
        "meta_object_name": "IRIDIUM 33 DEB",
        "meta_object_id": "1997-051CB",
        "meta_epoch": "2025-12-02T04:36:25.343136",
        "meta_mean_motion": 14.49519248,
        "meta_eccentricity": 0.0006277,
        "meta_inclination": 86.3934,
        "meta_ra_of_asc_node": 50.5529,
        "meta_arg_of_pericenter": 226.7343,
        "meta_mean_anomaly": 190.5824,
        "meta_ephemeris_type": 0,
        "meta_classification_type": "U",
        "meta_norad_cat_id": 33966,
        "meta_element_set_no": 999,
        "meta_rev_at_epoch": 88289,
        "meta_bstar": 0.000703,
        "meta_mean_motion_dot": 2.714e-05,
        "meta_mean_motion_ddot": 0,
        "tle_line1": "1 33966U 97051CB  25336.19195999  .00002714  00000+0  70300-3 0  9996",
        "tle_line2": "2 33966  86.3934  50.5529 0006277 226.7343 190.5824 14.49519248882898"
      },
      "geometry": {
        "type": "Point",
        "coordinates": [
          40.79283301811989,
          -69.4421378184503
        ]
      }
    },
    {
      "type": "Feature",
      "properties": {
        "norad_id": 34071,
        "name": "IRIDIUM 33 DEB",
        "group": "iridium-33-debris",
        "lat": 1.2927107458799574,
        "lon": 22.41585146902969,
        "alt_km": 735.2090707883171,
        "timestamp": "2025-12-02T08:59:33.099183+00:00",
        "meta_object_name": "IRIDIUM 33 DEB",
        "meta_object_id": "1997-051CE",
        "meta_epoch": "2025-12-02T04:00:56.713248",
        "meta_mean_motion": 14.49386618,
        "meta_eccentricity": 0.0009409,
        "meta_inclination": 86.3469,
        "meta_ra_of_asc_node": 22.4233,
        "meta_arg_of_pericenter": 136.3059,
        "meta_mean_anomaly": 223.8891,
        "meta_ephemeris_type": 0,
        "meta_classification_type": "U",
        "meta_norad_cat_id": 34071,
        "meta_element_set_no": 999,
        "meta_rev_at_epoch": 88181,
        "meta_bstar": 0.00071637,
        "meta_mean_motion_dot": 2.758e-05,
        "meta_mean_motion_ddot": 0,
        "tle_line1": "1 34071U 97051CE  25336.16732307  .00002758  00000+0  71637-3 0  9993",
        "tle_line2": "2 34071  86.3469  22.4233 0009409 136.3059 223.8891 14.49386618881817"
      },
      "geometry": {
        "type": "Point",
        "coordinates": [
          22.41585146902969,
          1.2927107458799574
        ]
      }
    },
    {
      "type": "Feature",
      "properties": {
        "norad_id": 34077,
        "name": "IRIDIUM 33 DEB",
        "group": "iridium-33-debris",
        "lat": -5.671411926035052,
        "lon": 55.71207306288477,
        "alt_km": 680.6237499129447,
        "timestamp": "2025-12-02T08:59:33.099194+00:00",
        "meta_object_name": "IRIDIUM 33 DEB",
        "meta_object_id": "1997-051CL",
        "meta_epoch": "2025-12-02T04:23:57.475968",
        "meta_mean_motion": 14.64546723,
        "meta_eccentricity": 0.0011001,
        "meta_inclination": 86.3871,
        "meta_ra_of_asc_node": 56.1558,
        "meta_arg_of_pericenter": 72.538,
        "meta_mean_anomaly": 353.6288,
        "meta_ephemeris_type": 0,
        "meta_classification_type": "U",
        "meta_norad_cat_id": 34077,
        "meta_element_set_no": 999,
        "meta_rev_at_epoch": 88178,
        "meta_bstar": 0.0019988,
        "meta_mean_motion_dot": 0.00010637,
        "meta_mean_motion_ddot": 0,
        "tle_line1": "1 34077U 97051CL  25336.18330412  .00010637  00000+0  19988-2 0  9997",
        "tle_line2": "2 34077  86.3871  56.1558 0011001  72.5380 353.6288 14.64546723881783"
      },
      "geometry": {
        "type": "Point",
        "coordinates": [
          55.71207306288477,
          -5.671411926035052
        ]
      }
    }
  ]
}